GLOBALSTAR M084         
1 38040U 11080A   25362.77455525 -.00000077  00000+0  14839-3 0  9995
2 38040  51.9981 176.0798 0001374  93.4608 280.4136 12.62266965647245
GLOBALSTAR M080         
1 38041U 11080B   25362.74585140 -.00000078  00000+0  14333-3 0  9990
2 38041  52.0029 177.8265 0000676 107.8545 265.3878 12.62265285647365
GLOBALSTAR M082         
1 38042U 11080C   25362.70252071 -.00000097  00000+0  38171-4 0  9999
2 38042  52.0059 133.4403 0000665 121.7496 344.1914 12.62266350648068
GLOBALSTAR M092         
1 38043U 11080D   25362.91346756 -.00000080  00000+0  13321-3 0  9998
2 38043  52.0061 223.1881 0001017  78.3975  26.2888 12.62268889646548
GLOBALSTAR M090         
1 38044U 11080E   25362.82146755 -.00000097  00000+0  35542-4 0  9994
2 38044  52.0107 126.9796 0000797 102.5066  63.0691 12.62265512648194
GLOBALSTAR M086         
1 38045U 11080F   25362.76628883 -.00000086  00000+0  99742-4 0  9995
2 38045  51.9887 127.3551 0001489  61.8520 103.4902 12.62281545648135
GLOBALSTAR M097         
1 39072U 13005A   25362.83740912 -.00000098  00000+0  29692-4 0  9991
2 39072  52.0062  41.8950 0000339  94.4104 265.6802 12.62267713595399
GLOBALSTAR M093         
1 39073U 13005B   25362.81128345 -.00000105  00000+0 -95029-5 0  9998
2 39073  52.0121  35.2576 0000223  45.6729 314.4156 12.62271223595341
